SL-14 R/B               
1 16792U 86046B   26047.65771266  .00000446  00000+0  48652-4 0  9990
2 16792  82.4800 100.0589 0021679 299.3500  60.5550 14.85569436123283
SL-14 R/B               
1 16882U 86055B   26047.79992275  .00000497  00000+0  54437-4 0  9994
2 16882  82.5231 146.3035 0019931  44.8874  76.2471 14.85621032116263
AJISAI (EGS)            
1 16908U 86061A   26047.84096245 -.00000110  00000+0 -91498-4 0  9990
2 16908  50.0082 157.4576 0011229 233.2591 219.7191 12.44515308465408
COSMOS 1812             
1 17295U 87003A   26047.75656588  .00395469  65473-4  75243-3 0  9990
2 17295  82.4751 219.4802 0002675 302.2658  57.8361 16.00641852141116
SL-14 R/B               
1 17567U 87024B   26047.69879121  .00000453  00000+0  48825-4 0  9991
2 17567  82.5276 112.4943 0017447 334.8092  25.2272 14.86111719 85017
COSMOS 1833             
1 17589U 87027A   26047.83578446 -.00000043  00000+0  26657-5 0  9996
2 17589  70.9226   9.8444 0024872 242.8159 117.0427 14.13057385  7377
SL-16 R/B               
1 17590U 87027B   26047.86986339  .00000168  00000+0  10710-3 0  9993
2 17590  71.0042 320.3674 0004600 179.7059 180.4069 14.17163437 12391
SL-14 R/B               
1 17912U 87038B   26047.81767641  .00000496  00000+0  54782-4 0  9993
2 17912  82.5037 316.4666 0017936 230.9154 129.0467 14.85349156 76131
COSMOS 1844             
1 17973U 87041A   26047.53949242  .00000388  00000+0  22650-3 0  9990
2 17973  70.8979  78.7885 0029019  51.6934 308.6790 14.14548128   596
SL-14 R/B               
1 18153U 87055B   26047.86563082  .00000629  00000+0  69524-4 0  9996
2 18153  82.5009   8.6530 0022355  82.8527 277.5230 14.85602914 66845
COSMOS 1867             
1 18187U 87060A   26047.27319213 -.00000035  00000+0  24325-4 0  9991
2 18187  65.0121   6.6788 0014162 277.3697  82.5778 14.31499564 16877
SL-14 R/B               
1 18749U 88001B   26047.85947693  .00000588  00000+0  65249-4 0  9996
2 18749  82.5116 214.9507 0016878 310.5316  49.4429 14.85501611 38938
