CCSDS_OMM_VERS = 2.0
CREATION_DATE  = 
ORIGINATOR     = 

OBJECT_NAME    = SL-14 R/B
OBJECT_ID      = 1986-046B
CENTER_NAME    = EARTH
REF_FRAME      = TEME
TIME_SYSTEM    = UTC
MEAN_ELEMENT_THEORY = SGP/SGP4

EPOCH          = 2026-02-16T15:47:06.373824
MEAN_MOTION    = 14.85569436
ECCENTRICITY   = .0021679
INCLINATION    = 82.4800
RA_OF_ASC_NODE = 100.0589
ARG_OF_PERICENTER = 299.3500
MEAN_ANOMALY   = 60.5550

EPHEMERIS_TYPE = 0
CLASSIFICATION_TYPE = U
NORAD_CAT_ID   = 16792
ELEMENT_SET_NO = 999
REV_AT_EPOCH   = 12328
BSTAR          = .48652E-4
MEAN_MOTION_DOT = .446E-5
MEAN_MOTION_DDOT = 0

CCSDS_OMM_VERS = 2.0
CREATION_DATE  = 
ORIGINATOR     = 

OBJECT_NAME    = SL-14 R/B
OBJECT_ID      = 1986-055B
CENTER_NAME    = EARTH
REF_FRAME      = TEME
TIME_SYSTEM    = UTC
MEAN_ELEMENT_THEORY = SGP/SGP4

EPOCH          = 2026-02-16T19:11:53.325600
MEAN_MOTION    = 14.85621032
ECCENTRICITY   = .0019931
INCLINATION    = 82.5231
RA_OF_ASC_NODE = 146.3035
ARG_OF_PERICENTER = 44.8874
MEAN_ANOMALY   = 76.2471

EPHEMERIS_TYPE = 0
CLASSIFICATION_TYPE = U
NORAD_CAT_ID   = 16882
ELEMENT_SET_NO = 999
REV_AT_EPOCH   = 11626
BSTAR          = .54437E-4
MEAN_MOTION_DOT = .497E-5
MEAN_MOTION_DDOT = 0

CCSDS_OMM_VERS = 2.0
CREATION_DATE  = 
ORIGINATOR     = 

OBJECT_NAME    = AJISAI (EGS)
OBJECT_ID      = 1986-061A
CENTER_NAME    = EARTH
REF_FRAME      = TEME
TIME_SYSTEM    = UTC
MEAN_ELEMENT_THEORY = SGP/SGP4

EPOCH          = 2026-02-16T20:10:59.155680
MEAN_MOTION    = 12.44515308
ECCENTRICITY   = .0011229
INCLINATION    = 50.0082
RA_OF_ASC_NODE = 157.4576
ARG_OF_PERICENTER = 233.2591
MEAN_ANOMALY   = 219.7191

EPHEMERIS_TYPE = 0
CLASSIFICATION_TYPE = U
NORAD_CAT_ID   = 16908
ELEMENT_SET_NO = 999
REV_AT_EPOCH   = 46540
BSTAR          = -.91498E-4
MEAN_MOTION_DOT = -.11E-5
MEAN_MOTION_DDOT = 0

CCSDS_OMM_VERS = 2.0
CREATION_DATE  = 
ORIGINATOR     = 

OBJECT_NAME    = COSMOS 1812
OBJECT_ID      = 1987-003A
CENTER_NAME    = EARTH
REF_FRAME      = TEME
TIME_SYSTEM    = UTC
MEAN_ELEMENT_THEORY = SGP/SGP4

EPOCH          = 2026-02-16T18:09:27.292032
MEAN_MOTION    = 16.00641852
ECCENTRICITY   = .0002675
INCLINATION    = 82.4751
RA_OF_ASC_NODE = 219.4802
ARG_OF_PERICENTER = 302.2658
MEAN_ANOMALY   = 57.8361

EPHEMERIS_TYPE = 0
CLASSIFICATION_TYPE = U
NORAD_CAT_ID   = 17295
ELEMENT_SET_NO = 999
REV_AT_EPOCH   = 14111
BSTAR          = .75243E-3
MEAN_MOTION_DOT = .395469E-2
MEAN_MOTION_DDOT = .65473E-4

CCSDS_OMM_VERS = 2.0
CREATION_DATE  = 
ORIGINATOR     = 

OBJECT_NAME    = SL-14 R/B
OBJECT_ID      = 1987-024B
CENTER_NAME    = EARTH
REF_FRAME      = TEME
TIME_SYSTEM    = UTC
MEAN_ELEMENT_THEORY = SGP/SGP4

EPOCH          = 2026-02-16T16:46:15.560544
MEAN_MOTION    = 14.86111719
ECCENTRICITY   = .0017447
INCLINATION    = 82.5276
RA_OF_ASC_NODE = 112.4943
ARG_OF_PERICENTER = 334.8092
MEAN_ANOMALY   = 25.2272

EPHEMERIS_TYPE = 0
CLASSIFICATION_TYPE = U
NORAD_CAT_ID   = 17567
ELEMENT_SET_NO = 999
REV_AT_EPOCH   = 8501
BSTAR          = .48825E-4
MEAN_MOTION_DOT = .453E-5
MEAN_MOTION_DDOT = 0

CCSDS_OMM_VERS = 2.0
CREATION_DATE  = 
ORIGINATOR     = 

OBJECT_NAME    = COSMOS 1833
OBJECT_ID      = 1987-027A
CENTER_NAME    = EARTH
REF_FRAME      = TEME
TIME_SYSTEM    = UTC
MEAN_ELEMENT_THEORY = SGP/SGP4

EPOCH          = 2026-02-16T20:03:31.777344
MEAN_MOTION    = 14.13057385
ECCENTRICITY   = .0024872
INCLINATION    = 70.9226
RA_OF_ASC_NODE = 9.8444
ARG_OF_PERICENTER = 242.8159
MEAN_ANOMALY   = 117.0427

EPHEMERIS_TYPE = 0
CLASSIFICATION_TYPE = U
NORAD_CAT_ID   = 17589
ELEMENT_SET_NO = 999
REV_AT_EPOCH   = 737
BSTAR          = .26657E-5
MEAN_MOTION_DOT = -.43E-6
MEAN_MOTION_DDOT = 0

CCSDS_OMM_VERS = 2.0
CREATION_DATE  = 
ORIGINATOR     = 

OBJECT_NAME    = SL-16 R/B
OBJECT_ID      = 1987-027B
CENTER_NAME    = EARTH
REF_FRAME      = TEME
TIME_SYSTEM    = UTC
MEAN_ELEMENT_THEORY = SGP/SGP4

EPOCH          = 2026-02-16T20:52:36.196896
MEAN_MOTION    = 14.17163437
ECCENTRICITY   = .00046
INCLINATION    = 71.0042
RA_OF_ASC_NODE = 320.3674
ARG_OF_PERICENTER = 179.7059
MEAN_ANOMALY   = 180.4069

EPHEMERIS_TYPE = 0
CLASSIFICATION_TYPE = U
NORAD_CAT_ID   = 17590
ELEMENT_SET_NO = 999
REV_AT_EPOCH   = 1239
BSTAR          = .1071E-3
MEAN_MOTION_DOT = .168E-5
MEAN_MOTION_DDOT = 0

CCSDS_OMM_VERS = 2.0
CREATION_DATE  = 
ORIGINATOR     = 

OBJECT_NAME    = SL-14 R/B
OBJECT_ID      = 1987-038B
CENTER_NAME    = EARTH
REF_FRAME      = TEME
TIME_SYSTEM    = UTC
MEAN_ELEMENT_THEORY = SGP/SGP4

EPOCH          = 2026-02-16T19:37:27.241824
MEAN_MOTION    = 14.85349156
ECCENTRICITY   = .0017936
INCLINATION    = 82.5037
RA_OF_ASC_NODE = 316.4666
ARG_OF_PERICENTER = 230.9154
MEAN_ANOMALY   = 129.0467

EPHEMERIS_TYPE = 0
CLASSIFICATION_TYPE = U
NORAD_CAT_ID   = 17912
ELEMENT_SET_NO = 999
REV_AT_EPOCH   = 7613
BSTAR          = .54782E-4
MEAN_MOTION_DOT = .496E-5
MEAN_MOTION_DDOT = 0

CCSDS_OMM_VERS = 2.0
CREATION_DATE  = 
ORIGINATOR     = 

OBJECT_NAME    = COSMOS 1844
OBJECT_ID      = 1987-041A
CENTER_NAME    = EARTH
REF_FRAME      = TEME
TIME_SYSTEM    = UTC
MEAN_ELEMENT_THEORY = SGP/SGP4

EPOCH          = 2026-02-16T12:56:52.145088
MEAN_MOTION    = 14.14548128
ECCENTRICITY   = .0029019
INCLINATION    = 70.8979
RA_OF_ASC_NODE = 78.7885
ARG_OF_PERICENTER = 51.6934
MEAN_ANOMALY   = 308.6790

EPHEMERIS_TYPE = 0
CLASSIFICATION_TYPE = U
NORAD_CAT_ID   = 17973
ELEMENT_SET_NO = 999
REV_AT_EPOCH   = 59
BSTAR          = .2265E-3
MEAN_MOTION_DOT = .388E-5
MEAN_MOTION_DDOT = 0

CCSDS_OMM_VERS = 2.0
CREATION_DATE  = 
ORIGINATOR     = 

OBJECT_NAME    = SL-14 R/B
OBJECT_ID      = 1987-055B
CENTER_NAME    = EARTH
REF_FRAME      = TEME
TIME_SYSTEM    = UTC
MEAN_ELEMENT_THEORY = SGP/SGP4

EPOCH          = 2026-02-16T20:46:30.502848
MEAN_MOTION    = 14.85602914
ECCENTRICITY   = .0022355
INCLINATION    = 82.5009
RA_OF_ASC_NODE = 8.6530
ARG_OF_PERICENTER = 82.8527
MEAN_ANOMALY   = 277.5230

EPHEMERIS_TYPE = 0
CLASSIFICATION_TYPE = U
NORAD_CAT_ID   = 18153
ELEMENT_SET_NO = 999
REV_AT_EPOCH   = 6684
BSTAR          = .69524E-4
MEAN_MOTION_DOT = .629E-5
MEAN_MOTION_DDOT = 0

CCSDS_OMM_VERS = 2.0
CREATION_DATE  = 
ORIGINATOR     = 

OBJECT_NAME    = COSMOS 1867
OBJECT_ID      = 1987-060A
CENTER_NAME    = EARTH
REF_FRAME      = TEME
TIME_SYSTEM    = UTC
MEAN_ELEMENT_THEORY = SGP/SGP4

EPOCH          = 2026-02-16T06:33:23.800032
MEAN_MOTION    = 14.31499564
ECCENTRICITY   = .0014162
INCLINATION    = 65.0121
RA_OF_ASC_NODE = 6.6788
ARG_OF_PERICENTER = 277.3697
MEAN_ANOMALY   = 82.5778

EPHEMERIS_TYPE = 0
CLASSIFICATION_TYPE = U
NORAD_CAT_ID   = 18187
ELEMENT_SET_NO = 999
REV_AT_EPOCH   = 1687
BSTAR          = .24325E-4
MEAN_MOTION_DOT = -.35E-6
MEAN_MOTION_DDOT = 0

CCSDS_OMM_VERS = 2.0
CREATION_DATE  = 
ORIGINATOR     = 

OBJECT_NAME    = SL-14 R/B
OBJECT_ID      = 1988-001B
CENTER_NAME    = EARTH
REF_FRAME      = TEME
TIME_SYSTEM    = UTC
MEAN_ELEMENT_THEORY = SGP/SGP4

EPOCH          = 2026-02-16T20:37:38.806752
MEAN_MOTION    = 14.85501611
ECCENTRICITY   = .0016878
INCLINATION    = 82.5116
RA_OF_ASC_NODE = 214.9507
ARG_OF_PERICENTER = 310.5316
MEAN_ANOMALY   = 49.4429

EPHEMERIS_TYPE = 0
CLASSIFICATION_TYPE = U
NORAD_CAT_ID   = 18749
ELEMENT_SET_NO = 999
REV_AT_EPOCH   = 3893
BSTAR          = .65249E-4
MEAN_MOTION_DOT = .588E-5
MEAN_MOTION_DDOT = 0

